STARLINK-37600          
1 69359U 26123G   26177.24291929  .00203293  00000+0  12975-2 0  9991
2 69359  53.1580 196.7777 0001486  29.7408 330.3696 15.75261097  3465
STARLINK-37599          
1 69360U 26123H   26177.26189435  .00339236  00000+0  16496-2 0  9992
2 69360  53.1558 196.1637 0001349  27.0653 333.0440 15.80951853  3472
STARLINK-37039          
1 69361U 26123J   26177.25002315 -.00045650  00000+0 -29489-3 0  9996
2 69361  53.1590 196.4746 0001039 105.9698  65.0544 15.75265389  4614
STARLINK-37040          
1 69362U 26123K   26177.24753052  .00266583  00000+0  13104-2 0  9991
2 69362  53.1574 196.0671 0003356   8.4193 351.6885 15.80911142  3477
STARLINK-37582          
1 69363U 26123L   26177.29728785  .00202595  00000+0  12946-2 0  9998
2 69363  53.1569 196.4005 0001276  58.9703 301.1443 15.75234079  3474
STARLINK-37309          
1 69364U 26123M   26177.24736176  .00237899  00000+0  15103-2 0  9990
2 69364  53.1589 196.0656 0001922  10.6872 349.4189 15.75277016  3475
STARLINK-37436          
1 69365U 26123N   26177.29746199  .00183319  00000+0  91234-3 0  9999
2 69365  53.1575 195.6610 0001202  99.4739 260.6420 15.80882332  3486
STARLINK-37581          
1 69366U 26123P   26177.30120432  .00295159  00000+0  14414-2 0  9998
2 69366  53.1568 195.6855 0001078  59.5675 300.5454 15.80978254  3487
STARLINK-37683          
1 69367U 26123Q   26177.26519438  .00231409  00000+0  14712-2 0  9991
2 69367  53.1575 196.1833 0001686  30.2846 329.8272 15.75263746  3477
STARLINK-37687          
1 69368U 26123R   26177.29299775  .00268193  00000+0  13174-2 0  9995
2 69368  53.1571 195.6311 0000823  80.8516 279.2599 15.80924374  3484
STARLINK-37631          
1 69369U 26123S   26177.29397360 -.00625138  00000+0 -35468-2 0  9993
2 69369  53.1571 195.6380 0005123  18.2843 341.8363 15.79910398  3481
STARLINK-37673          
1 69370U 26123T   26177.31534347  .00320813  00000+0  20111-2 0  9995
2 69370  53.1593 195.7792 0002009 110.3785 249.7451 15.75324720  3482
STARLINK-37645          
1 69371U 26123U   26177.30172255  .00172016  00000+0  11028-2 0  9998
2 69371  53.1585 195.6874 0001459 146.4259 213.6854 15.75256834  3485
STARLINK-37688          
1 69372U 26123V   26177.25002315 -.00016368  00000+0 -79484-4 0  9993
2 69372  53.1562 195.8409 0001161  71.8116  45.5073 15.80888108  4667
STARLINK-37685          
1 69373U 26123W   26177.29214406  .00191946  00000+0  95259-3 0  9995
2 69373  53.1563 195.6233 0003083 159.3960 200.7187 15.80914892  3486
STARLINK-37632          
1 69374U 26123X   26177.29141085  .00273430  00000+0  13416-2 0  9991
2 69374  53.1559 195.6170 0000591  74.1648 285.9440 15.80934720  3489
STARLINK-37454          
1 69375U 26123Y   26177.22709849  .00304288  00000+0  14812-2 0  9990
2 69375  53.1567 195.9267 0000659 111.0022 249.1071 15.81022691  3478
STARLINK-37485          
1 69376U 26123Z   26177.29686288  .00140868  00000+0  90745-3 0  9991
2 69376  53.1582 195.6540 0001282 149.4876 210.6219 15.75249975  3489
STARLINK-37439          
1 69377U 26123AA  26177.28245310  .00458993  00000+0  21796-2 0  9998
2 69377  53.1558 195.5560 0003426 183.7497 176.3501 15.81150731  3486
STARLINK-37376          
1 69378U 26123AB  26177.31502126  .00205490  00000+0  13109-2 0  9995
2 69378  53.1595 195.7743 0001828  89.1241 270.9989 15.75263769  3483
STARLINK-37383          
1 69379U 26123AC  26177.21622869 -.00592068  00000+0 -35232-2 0  9995
2 69379  53.1564 195.8515 0001546  49.6441 310.4716 15.78820332  3473
STARLINK-37411          
1 69380U 26123AD  26177.28381654  .00295657  00000+0  14471-2 0  9992
2 69380  53.1557 195.5645 0000538  82.2289 277.8794 15.80927708  3482
STARLINK-37427          
1 69381U 26123AE  26177.27971475  .00330299  00000+0  16126-2 0  9999
2 69381  53.1562 195.5364 0000948 110.8029 249.3096 15.80888799  3487
QIANFAN-165             
1 69382U 26124A   26177.23145944  .00000124  00000+0  55697-4 0  9990
2 69382  88.9984   1.0177 0003463 108.8101 251.3463 14.16013771  3094
QIANFAN-166             
1 69383U 26124B   26177.22032520  .00000127  00000+0  56023-4 0  9992
2 69383  88.9985   1.0162 0002983 102.5332 257.6190 14.17060991  3096
QIANFAN-167             
1 69384U 26124C   26177.22390367  .00000117  00000+0  51691-4 0  9994
2 69384  88.9984   1.0164 0002961 141.9932 218.1466 14.16527300  3096
QIANFAN-168             
1 69385U 26124D   26177.21160308  .00000114  00000+0  49039-4 0  9994
2 69385  88.9984   1.0147 0003791 118.5703 241.5867 14.17874227  3095
QIANFAN-169             
1 69386U 26124E   26177.27715011  .00000119  00000+0  50967-4 0  9995
2 69386  88.9984   1.0059 0004095 133.3182 226.8350 14.18287956  3105
QIANFAN-170             
1 69387U 26124F   26177.19830342  .00000113  00000+0  47083-4 0  9991
2 69387  88.9984   1.0126 0003662 114.2239 245.9333 14.19184735  3094
QIANFAN-171             
1 69388U 26124G   26177.26021820  .00000118  00000+0  48896-4 0  9991
2 69388  88.9984   1.0033 0003121 154.6810 205.4534 14.20068842  3103
