OBJECT_NAME,OBJECT_ID,EPOCH,MEAN_MOTION,ECCENTRICITY,INCLINATION,RA_OF_ASC_NODE,ARG_OF_PERICENTER,MEAN_ANOMALY,EPHEMERIS_TYPE,CLASSIFICATION_TYPE,NORAD_CAT_ID,ELEMENT_SET_NO,REV_AT_EPOCH,BSTAR,MEAN_MOTION_DOT,MEAN_MOTION_DDOT
STARLINK-37600,2026-123G,2026-06-26T05:49:48.226656,15.75261097,.00014865,53.1580,196.7777,29.7408,330.3696,0,U,69359,999,346,.12974577E-2,.203293E-2,0
STARLINK-37599,2026-123H,2026-06-26T06:17:07.671840,15.80951853,.00013495,53.1558,196.1637,27.0653,333.0440,0,U,69360,999,347,.16496376E-2,.339236E-2,0
STARLINK-37039,2026-123J,2026-06-26T06:00:02.000160,15.75265389,.00010393,53.1590,196.4746,105.9698,65.0544,0,U,69361,999,461,-.29488639E-3,-.4565E-3,0
STARLINK-37040,2026-123K,2026-06-26T05:56:26.636928,15.80911142,.00033568,53.1574,196.0671,8.4193,351.6885,0,U,69362,999,347,.13104261E-2,.266583E-2,0
STARLINK-37582,2026-123L,2026-06-26T07:08:05.670240,15.75234079,.00012761,53.1569,196.4005,58.9703,301.1443,0,U,69363,999,347,.12946445E-2,.202595E-2,0
STARLINK-37309,2026-123M,2026-06-26T05:56:12.056064,15.75277016,.00019222,53.1589,196.0656,10.6872,349.4189,0,U,69364,999,347,.15103252E-2,.237899E-2,0
STARLINK-37436,2026-123N,2026-06-26T07:08:20.715936,15.80882332,.00012023,53.1575,195.6610,99.4739,260.6420,0,U,69365,999,348,.91234295E-3,.183319E-2,0
STARLINK-37581,2026-123P,2026-06-26T07:13:44.053248,15.80978254,.00010781,53.1568,195.6855,59.5675,300.5454,0,U,69366,999,348,.14414128E-2,.295159E-2,0
STARLINK-37683,2026-123Q,2026-06-26T06:21:52.794432,15.75263746,.0001686,53.1575,196.1833,30.2846,329.8272,0,U,69367,999,347,.1471224E-2,.231409E-2,0
STARLINK-37687,2026-123R,2026-06-26T07:01:55.005600,15.80924374,.00008234,53.1571,195.6311,80.8516,279.2599,0,U,69368,999,348,.13174245E-2,.268193E-2,0
STARLINK-37631,2026-123S,2026-06-26T07:03:19.319040,15.79910398,.00051238,53.1571,195.6380,18.2843,341.8363,0,U,69369,999,348,-.35467904E-2,-.625138E-2,0
STARLINK-37673,2026-123T,2026-06-26T07:34:05.675808,15.75324720,.00020093,53.1593,195.7792,110.3785,249.7451,0,U,69370,999,348,.20110897E-2,.320813E-2,0
STARLINK-37645,2026-123U,2026-06-26T07:14:28.828320,15.75256834,.00014598,53.1585,195.6874,146.4259,213.6854,0,U,69371,999,348,.1102772E-2,.172016E-2,0
STARLINK-37688,2026-123V,2026-06-26T06:00:02.000160,15.80888108,.00011614,53.1562,195.8409,71.8116,45.5073,0,U,69372,999,466,-.79483807E-4,-.16368E-3,0
STARLINK-37685,2026-123W,2026-06-26T07:00:41.246784,15.80914892,.0003083,53.1563,195.6233,159.3960,200.7187,0,U,69373,999,348,.95259227E-3,.191946E-2,0
STARLINK-37632,2026-123X,2026-06-26T06:59:37.897440,15.80934720,.00005911,53.1559,195.6170,74.1648,285.9440,0,U,69374,999,348,.13416033E-2,.27343E-2,0
STARLINK-37454,2026-123Y,2026-06-26T05:27:01.309536,15.81022691,.00006593,53.1567,195.9267,111.0022,249.1071,0,U,69375,999,347,.14812325E-2,.304288E-2,0
STARLINK-37485,2026-123Z,2026-06-26T07:07:28.952832,15.75249975,.00012825,53.1582,195.6540,149.4876,210.6219,0,U,69376,999,348,.90745285E-3,.140868E-2,0
STARLINK-37439,2026-123AA,2026-06-26T06:46:43.947840,15.81150731,.00034267,53.1558,195.5560,183.7497,176.3501,0,U,69377,999,348,.2179627E-2,.458993E-2,0
STARLINK-37376,2026-123AB,2026-06-26T07:33:37.836864,15.75263769,.00018287,53.1595,195.7743,89.1241,270.9989,0,U,69378,999,348,.13109286E-2,.20549E-2,0
STARLINK-37383,2026-123AC,2026-06-26T05:11:22.158816,15.78820332,.00015469,53.1564,195.8515,49.6441,310.4716,0,U,69379,999,347,-.35231582E-2,-.592068E-2,0
STARLINK-37411,2026-123AD,2026-06-26T06:48:41.749056,15.80927708,.00005389,53.1557,195.5645,82.2289,277.8794,0,U,69380,999,348,.14470679E-2,.295657E-2,0
STARLINK-37427,2026-123AE,2026-06-26T06:42:47.354400,15.80888799,.00009486,53.1562,195.5364,110.8029,249.3096,0,U,69381,999,348,.16125895E-2,.330299E-2,0
QIANFAN-165,2026-124A,2026-06-26T05:33:18.095616,14.16013771,.00034638,88.9984,1.0177,108.8101,251.3463,0,U,69382,999,309,.55696847E-4,.124E-5,0
QIANFAN-166,2026-124B,2026-06-26T05:17:16.097280,14.17060991,.00029836,88.9985,1.0162,102.5332,257.6190,0,U,69383,999,309,.56023307E-4,.127E-5,0
QIANFAN-167,2026-124C,2026-06-26T05:22:25.277088,14.16527300,.00029619,88.9984,1.0164,141.9932,218.1466,0,U,69384,999,309,.5169129E-4,.117E-5,0
QIANFAN-168,2026-124D,2026-06-26T05:04:42.506112,14.17874227,.00037919,88.9984,1.0147,118.5703,241.5867,0,U,69385,999,309,.49038673E-4,.114E-5,0
QIANFAN-169,2026-124E,2026-06-26T06:39:05.769504,14.18287956,.00040953,88.9984,1.0059,133.3182,226.8350,0,U,69386,999,310,.50966701E-4,.119E-5,0
QIANFAN-170,2026-124F,2026-06-26T04:45:33.415488,14.19184735,.00036623,88.9984,1.0126,114.2239,245.9333,0,U,69387,999,309,.47083011E-4,.113E-5,0
QIANFAN-171,2026-124G,2026-06-26T06:14:42.852480,14.20068842,.00031212,88.9984,1.0033,154.6810,205.4534,0,U,69388,999,310,.48895717E-4,.118E-5,0
